COMMENT,ORIGINATOR,NORAD_CAT_ID,OBJECT_NAME,OBJECT_TYPE,CLASSIFICATION_TYPE,INTLDES,EPOCH,EPOCH_MICROSECONDS,MEAN_MOTION,ECCENTRICITY,INCLINATION,RA_OF_ASC_NODE,ARG_OF_PERICENTER,MEAN_ANOMALY,EPHEMERIS_TYPE,ELEMENT_SET_NO,REV_AT_EPOCH,BSTAR,MEAN_MOTION_DOT,MEAN_MOTION_DDOT,FILE,TLE_LINE0,TLE_LINE1,TLE_LINE2,OBJECT_ID,OBJECT_NUMBER,SEMIMAJOR_AXIS,PERIOD,APOGEE,PERIGEE
GENERATED VIA SPACETRACK.ORG API,18 SPCS,41616,FLOCK 2P 5,PAYLOAD,U,16040T,9/7/2018 21:34,510080,15.24623736,0.0008932,97.4109,314.8889,317.6923,42.3625,0,999,12282,4.54E-05,1.05E-05,0,2330205,0 FLOCK 2P 5,1 41616U 16040T   18250.89880220 +.00001049 +00000-0 +45417-4 0  9991,2 41616 097.4109 314.8889 0008932 317.6923 042.3625 15.24623736122820,2016-040T,41616,6870.052,94.449,498.053,485.781
GENERATED VIA SPACETRACK.ORG API,18 SPCS,41616,FLOCK 2P 5,PAYLOAD,U,16040T,9/8/2018 3:52,913728,15.24624349,0.0008922,97.4108,315.1486,316.6521,43.4014,0,999,12286,4.50E-05,1.04E-05,0,2330015,0 FLOCK 2P 5,1 41616U 16040T   18251.16133002  .00001040  00000-0  45020-4 0  9992,2 41616  97.4108 315.1486 0008922 316.6521  43.4014 15.24624349122867,2016-040T,41616,6870.05,94.449,498.045,485.786
GENERATED VIA SPACETRACK.ORG API,18 SPCS,41616,FLOCK 2P 5,PAYLOAD,U,16040T,9/8/2018 10:10,296640,15.24625102,0.0008909,97.4109,315.4083,315.616,44.4363,0,999,12290,4.56E-05,1.05E-05,0,2330215,0 FLOCK 2P 5,1 41616U 16040T   18251.42385760 +.00001054 +00000-0 +45606-4 0  9996,2 41616 097.4109 315.4083 0008909 315.6160 044.4363 15.24625102122908,2016-040T,41616,6870.048,94.449,498.033,485.792
GENERATED VIA SPACETRACK.ORG API,18 SPCS,41616,FLOCK 2P 5,PAYLOAD,U,16040T,9/8/2018 19:37,865824,15.24626194,0.0008882,97.4108,315.7979,314.0898,45.9608,0,999,12296,4.64E-05,1.07E-05,0,2330686,0 FLOCK 2P 5,1 41616U 16040T   18251.81764891 +.00001074 +00000-0 +46409-4 0  9999,2 41616 097.4108 315.7979 0008882 314.0898 045.9608 15.24626194122961,2016-040T,41616,6870.045,94.449,498.012,485.808
GENERATED VIA SPACETRACK.ORG API,18 SPCS,41616,FLOCK 2P 5,PAYLOAD,U,16040T,9/9/2018 3:29,826752,15.24629082,0.0008819,97.4103,316.1222,312.1528,47.904,0,999,12301,6.11E-05,1.44E-05,0,2330349,0 FLOCK 2P 5,1 41616U 16040T   18252.14580818  .00001437  00000-0  61102-4 0  9991,2 41616  97.4103 316.1222 0008819 312.1528  47.9040 15.24629082123019,2016-040T,41616,6870.036,94.449,497.96,485.842
GENERATED VIA SPACETRACK.ORG API,18 SPCS,41616,FLOCK 2P 5,PAYLOAD,U,16040T,9/9/2018 17:40,100608,15.24628722,0.0008808,97.4107,316.7069,310.3813,49.6655,0,999,12310,4.75E-05,1.10E-05,0,2331184,0 FLOCK 2P 5,1 41616U 16040T   18252.73649422 +.00001101 +00000-0 +47518-4 0  9996,2 41616 097.4107 316.7069 0008808 310.3813 049.6655 15.24628722123104,2016-040T,41616,6870.037,94.449,497.953,485.851
GENERATED VIA SPACETRACK.ORG API,18 SPCS,41616,FLOCK 2P 5,PAYLOAD,U,16040T,9/10/2018 9:25,978400,15.24629541,0.0008771,97.4106,317.3561,307.6422,52.4019,0,999,12320,4.25E-05,9.79E-06,0,2331143,0 FLOCK 2P 5,1 41616U 16040T   18253.39281225  .00000979  00000-0  42542-4 0  9996,2 41616  97.4106 317.3561 0008771 307.6422  52.4019 15.24629541123208,2016-040T,41616,6870.035,94.449,497.925,485.874
GENERATED VIA SPACETRACK.ORG API,18 SPCS,41616,FLOCK 2P 5,PAYLOAD,U,16040T,9/10/2018 18:52,467232,15.24630272,0.0008754,97.4105,317.7457,306.0564,53.9862,0,999,12326,4.09E-05,9.39E-06,0,2331651,0 FLOCK 2P 5,1 41616U 16040T   18253.78660263 +.00000939 +00000-0 +40921-4 0  9997,2 41616 097.4105 317.7457 0008754 306.0564 053.9862 15.24630272123267,2016-040T,41616,6870.032,94.449,497.911,485.883
GENERATED VIA SPACETRACK.ORG API,18 SPCS,41616,FLOCK 2P 5,PAYLOAD,U,16040T,9/11/2018 20:04,505536,15.24634621,0.0008719,97.4103,318.7846,301.7025,58.3362,0,999,12342,5.08E-05,1.18E-05,0,2331794,0 FLOCK 2P 5,1 41616U 16040T   18254.83670724  .00001182  00000-0  50763-4 0  9993,2 41616  97.4103 318.7846 0008719 301.7025  58.3362 15.24634621123427,2016-040T,41616,6870.019,94.448,497.874,485.894
GENERATED VIA SPACETRACK.ORG API,18 SPCS,41616,FLOCK 2P 5,PAYLOAD,U,16040T,9/12/2018 11:49,995392,15.24638013,0.0008693,97.4103,319.4338,298.8977,61.1388,0,999,12352,6.04E-05,1.42E-05,0,2332120,0 FLOCK 2P 5,1 41616U 16040T   18255.49302078 +.00001421 +00000-0 +60438-4 0  9996,2 41616 097.4103 319.4338 0008693 298.8977 061.1388 15.24638013123524,2016-040T,41616,6870.009,94.448,497.846,485.902
GENERATED VIA SPACETRACK.ORG API,18 SPCS,41616,FLOCK 2P 5,PAYLOAD,U,16040T,9/12/2018 21:17,252672,15.24639875,0.0008677,97.4102,319.8234,297.2207,62.8146,0,999,12358,6.47E-05,1.53E-05,0,2332471,0 FLOCK 2P 5,1 41616U 16040T   18255.88680848 +.00001525 +00000-0 +64669-4 0  9998,2 41616 097.4102 319.8234 0008677 297.2207 062.8146 15.24639875123586,2016-040T,41616,6870.004,94.448,497.83,485.907
GENERATED VIA SPACETRACK.ORG API,18 SPCS,41616,FLOCK 2P 5,PAYLOAD,U,16040T,9/13/2018 3:35,426496,15.24640591,0.0008664,97.4102,320.0831,296.0789,63.9557,0,999,12362,6.34E-05,1.50E-05,0,2332302,0 FLOCK 2P 5,1 41616U 16040T   18256.14933364  .00001495  00000-0  63426-4 0  9998,2 41616  97.4102 320.0831 0008664 296.0789  63.9557 15.24640591123621,2016-040T,41616,6870.001,94.448,497.819,485.914
GENERATED VIA SPACETRACK.ORG API,18 SPCS,41616,FLOCK 2P 5,PAYLOAD,U,16040T,9/13/2018 20:54,344896,15.24643546,0.0008626,97.41,320.7972,293.0818,66.951,0,999,12373,6.83E-05,1.62E-05,0,2332963,0 FLOCK 2P 5,1 41616U 16040T   18256.87127714 +.00001616 +00000-0 +68325-4 0  9990,2 41616 097.4100 320.7972 0008626 293.0818 066.9510 15.24643546123737,2016-040T,41616,6869.993,94.448,497.784,485.931
GENERATED VIA SPACETRACK.ORG API,18 SPCS,41616,FLOCK 2P 5,PAYLOAD,U,16040T,9/14/2018 9:30,549120,15.24646071,0.0008612,97.41,321.3166,290.8134,69.2181,0,999,12381,7.32E-05,1.74E-05,0,2332944,0 FLOCK 2P 5,1 41616U 16040T   18257.39632580  .00001736  00000-0  73188-4 0  9996,2 41616  97.4100 321.3166 0008612 290.8134  69.2181 15.24646071123815,2016-040T,41616,6869.985,94.448,497.766,485.933
GENERATED VIA SPACETRACK.ORG API,18 SPCS,41616,FLOCK 2P 5,PAYLOAD,U,16040T,9/14/2018 22:06,815552,15.246463,0.0008608,97.4099,321.836,288.5904,71.4398,0,999,12389,6.39E-05,1.51E-05,0,2333405,0 FLOCK 2P 5,1 41616U 16040T   18257.92137518 +.00001508 +00000-0 +63937-4 0  9994,2 41616 097.4099 321.8360 0008608 288.5904 071.4398 15.24646300123895,2016-040T,41616,6869.984,94.448,497.763,485.936
GENERATED VIA SPACETRACK.ORG API,18 SPCS,41616,FLOCK 2P 5,PAYLOAD,U,16040T,9/15/2018 10:42,871168,15.24650674,0.000856,97.4095,322.3554,286.2742,73.7554,0,999,12397,8.01E-05,1.91E-05,0,2333369,0 FLOCK 2P 5,1 41616U 16040T   18258.44642212  .00001907  00000-0  80101-4 0  9999,2 41616  97.4095 322.3554 0008560 286.2742  73.7554 15.24650674123971,2016-040T,41616,6869.971,94.447,497.717,485.955
GENERATED VIA SPACETRACK.ORG API,18 SPCS,41616,FLOCK 2P 5,PAYLOAD,U,16040T,9/15/2018 21:44,399744,15.24652445,0.0008565,97.4094,322.8098,284.3351,75.6935,0,999,12404,8.05E-05,1.92E-05,0,2333928,0 FLOCK 2P 5,1 41616U 16040T   18258.90583796 +.00001917 +00000-0 +80503-4 0  9998,2 41616 097.4094 322.8098 0008565 284.3351 075.6935 15.24652445124049,2016-040T,41616,6869.966,94.447,497.715,485.947
GENERATED VIA SPACETRACK.ORG API,18 SPCS,41616,FLOCK 2P 5,PAYLOAD,U,16040T,9/16/2018 10:20,402656,15.24654166,0.0008593,97.4097,323.3291,282.3312,77.6964,0,999,12412,7.96E-05,1.90E-05,0,2333962,0 FLOCK 2P 5,1 41616U 16040T   18259.43088429 +.00001895 +00000-0 +79610-4 0  9992,2 41616 097.4097 323.3291 0008593 282.3312 077.6964 15.24654166124124,2016-040T,41616,6869.961,94.447,497.729,485.922
GENERATED VIA SPACETRACK.ORG API,18 SPCS,41616,FLOCK 2P 5,PAYLOAD,U,16040T,9/16/2018 19:47,406784,15.24654425,0.0008594,97.4097,323.7185,280.7481,79.2789,0,999,12418,7.06E-05,1.67E-05,0,2334069,0 FLOCK 2P 5,1 41616U 16040T   18259.82466906  .00001672  00000-0  70571-4 0  9995,2 41616  97.4097 323.7185 0008594 280.7481  79.2789 15.24654425124187,2016-040T,41616,6869.96,94.447,497.729,485.921
GENERATED VIA SPACETRACK.ORG API,18 SPCS,41616,FLOCK 2P 5,PAYLOAD,U,16040T,9/16/2018 21:22,883712,15.24654185,0.0008594,97.4097,323.7835,280.3768,79.65,0,999,12419,6.36E-05,1.50E-05,0,2334457,0 FLOCK 2P 5,1 41616U 16040T   18259.89029958 +.00001500 +00000-0 +63613-4 0  9993,2 41616 097.4097 323.7835 0008594 280.3768 079.6500 15.24654185124192,2016-040T,41616,6869.961,94.447,497.73,485.922
GENERATED VIA SPACETRACK.ORG API,18 SPCS,41616,FLOCK 2P 5,PAYLOAD,U,16040T,9/17/2018 14:41,284576,15.24656531,0.0008577,97.4096,324.4976,277.3162,82.7101,0,999,12430,6.39E-05,1.51E-05,0,2334481,0 FLOCK 2P 5,1 41616U 16040T   18260.61223709 +.00001506 +00000-0 +63860-4 0  9995,2 41616 097.4096 324.4976 0008577 277.3162 082.7101 15.24656531124302,2016-040T,41616,6869.953,94.447,497.711,485.926
GENERATED VIA SPACETRACK.ORG API,18 SPCS,41616,FLOCK 2P 5,PAYLOAD,U,16040T,9/17/2018 16:16,782240,15.24656336,0.0008581,97.4096,324.5625,277.0734,82.9527,0,999,12431,6.04E-05,1.42E-05,0,2334910,0 FLOCK 2P 5,1 41616U 16040T   18260.67786785 +.00001422 +00000-0 +60447-4 0  9994,2 41616 097.4096 324.5625 0008581 277.0734 082.9527 15.24656336124319,2016-040T,41616,6869.954,94.447,497.714,485.924
GENERATED VIA SPACETRACK.ORG API,18 SPCS,41616,FLOCK 2P 5,PAYLOAD,U,16040T,9/18/2018 3:17,201088,15.24657248,0.0008575,97.4095,325.0169,275.0984,84.9274,0,999,12438,5.72E-05,1.34E-05,0,2334713,0 FLOCK 2P 5,1 41616U 16040T   18261.13728242  .00001343  00000-0  57247-4 0  9996,2 41616  97.4095 325.0169 0008575 275.0984  84.9274 15.24657248124386,2016-040T,41616,6869.951,94.447,497.707,485.925
GENERATED VIA SPACETRACK.ORG API,18 SPCS,41616,FLOCK 2P 5,PAYLOAD,U,16040T,9/18/2018 20:37,545792,15.2465778,0.0008582,97.4095,325.7311,271.9673,88.0582,0,999,12449,4.69E-05,1.09E-05,0,2335354,0 FLOCK 2P 5,1 41616U 16040T   18261.85921928 +.00001088 +00000-0 +46940-4 0  9995,2 41616 097.4095 325.7311 0008582 271.9673 088.0582 15.24657780124490,2016-040T,41616,6869.95,94.447,497.711,485.919
